NORAD_CAT_ID,OBJECT_NAME,OBJECT_TYPE,EPOCH,MEAN_MOTION,ECCENTRICITY,INCLINATION,RA_OF_ASC_NODE,ARG_OF_PERICENTER,MEAN_ANOMALY,BSTAR,MEAN_MOTION_DOT,MEAN_MOTION_DDOT,TLE_LINE0,TLE_LINE1,TLE_LINE2,SEMIMAJOR_AXIS,PERIOD,APOGEE,PERIGEE,DECAYED
51986.0,STARLINK-3645,PAYLOAD,2023-03-29 11:57:48,15.08853035,0.0001436,53.2147,190.3451,61.3021,298.8115,0.00070999,0.00011034,0.0,0 STARLINK-3645,1 51986U 22025AG  23088.49848042  .00011034  00000-0  70999-3 0  9996,2 51986  53.2147 190.3451 0001436  61.3021 298.8115 15.08853035 58592,6917.841,95.437,540.699,538.712,0.0
51986.0,STARLINK-3645,PAYLOAD,2023-03-29 18:19:20,15.08862144,0.0001583,53.2136,189.15,100.4121,259.7049,0.00070796,0.00011004,0.0,0 STARLINK-3645,1 51986U 22025AG  23088.76343421  .00011004  00000-0  70796-3 0  9999,2 51986  53.2136 189.1500 0001583 100.4121 259.7049 15.08862144 58638,6917.813,95.436,540.773,538.583,0.0
51986.0,STARLINK-3645,PAYLOAD,2023-03-30 05:27:03,15.08826759,9.25e-05,53.2156,187.0679,127.7715,232.3361,-0.00030371,-5.116e-05,0.0,0 STARLINK-3645,1 51986U 22025AG  23089.22712185 -.00005116  00000-0 -30371-3 0  9992,2 51986  53.2156 187.0679 0000925 127.7715 232.3361 15.08826759 59798,6917.921,95.438,540.426,539.146,0.0
51986.0,STARLINK-3645,PAYLOAD,2023-03-30 13:23:58,15.08856697,0.0001004,53.2148,185.5843,89.046,271.0647,0.00074604,0.00011611,0.0,0 STARLINK-3645,1 51986U 22025AG  23089.55831841  .00011611  00000-0  74604-3 0  9991,2 51986  53.2148 185.5843 0001004  89.0460 271.0647 15.08856697 59848,6917.829,95.436,540.389,539.0,0.0
51986.0,STARLINK-3645,PAYLOAD,2023-03-30 18:10:07,15.0887843,0.0001215,53.2146,184.6908,100.0831,260.0299,0.0018678,0.00029595,0.0,0 STARLINK-3645,1 51986U 22025AG  23089.75703395  .00029595  00000-0  18678-2 0  9993,2 51986  53.2146 184.6908 0001215 100.0831 260.0299 15.08878430 59871,6917.763,95.435,540.468,538.787,0.0
51986.0,STARLINK-3645,PAYLOAD,2023-03-31 10:03:59,15.08859203,0.0001035,53.2151,181.7162,103.0945,257.0163,0.0017758,0.00028102,0.0,0 STARLINK-3645,1 51986U 22025AG  23090.41943746  .00028102  00000-0  17758-2 0  9995,2 51986  53.2151 181.7162 0001035 103.0945 257.0163 15.08859203 59970,6917.822,95.436,540.403,538.971,0.0
51986.0,STARLINK-3645,PAYLOAD,2023-03-31 16:25:31,15.08887944,0.0001059,53.2154,180.5276,78.8005,281.3106,0.0033129,0.00052902,0.0,0 STARLINK-3645,1 51986U 22025AG  23090.68439351  .00052902  00000-0  33129-2 0  9991,2 51986  53.2154 180.5276 0001059  78.8005 281.3106 15.08887944 60015,6917.734,95.435,540.331,538.866,0.0
51986.0,STARLINK-3645,PAYLOAD,2023-04-01 11:30:10,15.08821378,0.0001077,53.2149,176.9593,93.9442,266.1673,0.0013737,0.00021631,0.0,0 STARLINK-3645,1 51986U 22025AG  23091.47928592  .00021631  00000-0  13737-2 0  9997,2 51986  53.2149 176.9593 0001077  93.9442 266.1673 15.08821378 60135,6917.937,95.439,540.547,539.057,0.0
51986.0,STARLINK-3645,PAYLOAD,2023-04-01 13:05:33,15.08827773,9.81e-05,53.2145,176.6615,88.2993,271.8111,0.0014024,0.00022094,0.0,0 STARLINK-3645,1 51986U 22025AG  23091.54552551  .00022094  00000-0  14024-2 0  9997,2 51986  53.2145 176.6615 0000981  88.2993 271.8111 15.08827773 59058,6917.918,95.438,540.461,539.104,0.0
51986.0,STARLINK-3645,PAYLOAD,2023-04-01 17:51:42,15.08842384,9.99e-05,53.2141,175.7691,83.0955,277.0151,0.0025098,0.00039884,0.0,0 STARLINK-3645,1 51986U 22025AG  23091.74424700  .00039884  00000-0  25098-2 0  9991,2 51986  53.2141 175.7691 0000999  83.0955 277.0151 15.08842384 59088,6917.873,95.437,540.429,539.047,0.0
51986.0,STARLINK-3645,PAYLOAD,2023-04-02 12:56:20,15.08865573,9.99e-05,53.2141,172.2013,92.5163,267.5943,0.0025174,0.00040032,0.0,0 STARLINK-3645,1 51986U 22025AG  23092.53912850  .00040032  00000-0  25174-2 0  9999,2 51986  53.2141 172.2013 0000999  92.5163 267.5943 15.08865573 59206,6917.802,95.436,540.358,538.976,0.0
51986.0,STARLINK-3645,PAYLOAD,2023-04-02 14:31:43,15.08871169,0.0001019,53.2142,171.904,92.1134,267.9975,0.0026665,0.00042441,0.0,0 STARLINK-3645,1 51986U 22025AG  23092.60536741  .00042441  00000-0  26665-2 0  9990,2 51986  53.2142 171.9040 0001019  92.1134 267.9975 15.08871169 60301,6917.785,95.436,540.355,538.945,0.0
51986.0,STARLINK-3645,PAYLOAD,2023-04-03 04:50:12,15.08852657,0.0001719,53.2152,169.2298,93.8123,266.3066,0.00098276,0.00015393,0.0,0 STARLINK-3645,1 51986U 22025AG  23093.20152973  .00015393  00000-0  98276-3 0  9992,2 51986  53.2152 169.2298 0001719  93.8123 266.3066 15.08852657 60394,6917.842,95.437,540.896,538.518,0.0
51986.0,STARLINK-3645,PAYLOAD,2023-04-03 11:11:44,15.08849823,0.0001108,53.2146,168.0381,109.2261,250.8851,0.0015523,0.0002451,0.0,0 STARLINK-3645,1 51986U 22025AG  23093.46648880  .00024510  00000-0  15523-2 0  9991,2 51986  53.2146 168.0381 0001108 109.2261 250.8851 15.08849823 59348,6917.85,95.437,540.482,538.949,0.0
51986.0,STARLINK-3645,PAYLOAD,2023-04-03 22:19:26,15.08856179,0.0001344,53.2134,165.9594,64.2576,295.8555,0.0015034,0.0002373,0.0,0 STARLINK-3645,1 51986U 22025AG  23093.93017021  .00023730  00000-0  15034-2 0  9990,2 51986  53.2134 165.9594 0001344  64.2576 295.8555 15.08856179 60500,6917.831,95.437,540.626,538.766,0.0
51986.0,STARLINK-3645,PAYLOAD,2023-04-04 11:02:31,15.08858164,0.0001317,53.2154,163.577,97.5675,262.5467,0.00093462,0.00014625,0.0,0 STARLINK-3645,1 51986U 22025AG  23094.46008592  .00014625  00000-0  93462-3 0  9997,2 51986  53.2154 163.5770 0001317  97.5675 262.5467 15.08858164 60588,6917.825,95.436,540.601,538.779,0.0
51986.0,STARLINK-3645,PAYLOAD,2023-04-04 15:48:40,15.08867422,0.0001271,53.2141,162.6855,97.7925,262.3212,0.00093888,0.00014697,0.0,0 STARLINK-3645,1 51986U 22025AG  23094.65880167  .00014697  00000-0  93888-3 0  9995,2 51986  53.2141 162.6855 0001271  97.7925 262.3212 15.08867422 59522,6917.797,95.436,540.541,538.782,0.0
51986.0,STARLINK-3645,PAYLOAD,2023-04-05 10:53:18,15.08835409,0.000121,53.2143,159.1173,95.9971,264.1159,1.4954e-05,-5e-07,0.0,0 STARLINK-3645,1 51986U 22025AG  23095.45369092 -.00000050  00000-0  14954-4 0  9990,2 51986  53.2143 159.1173 0001210  95.9971 264.1159 15.08835409 60737,6917.894,95.438,540.596,538.922,0.0
51986.0,STARLINK-3645,PAYLOAD,2023-04-05 15:39:28,15.08840392,0.0001231,53.2147,158.2246,100.6739,259.4392,0.00022968,3.369e-05,0.0,0 STARLINK-3645,1 51986U 22025AG  23095.65241032  .00003369  00000-0  22968-3 0  9993,2 51986  53.2147 158.2246 0001231 100.6739 259.4392 15.08840392 59675,6917.879,95.438,540.596,538.893,0.0
51986.0,STARLINK-3645,PAYLOAD,2023-04-06 10:44:06,15.08838325,0.0001436,53.215,154.6548,115.0271,245.087,0.00018213,2.612e-05,0.0,0 STARLINK-3645,1 51986U 22025AG  23096.44729487  .00002612  00000-0  18213-3 0  9994,2 51986  53.2150 154.6548 0001436 115.0271 245.0870 15.08838325 59790,6917.886,95.438,540.744,538.757,0.0
51986.0,STARLINK-3645,PAYLOAD,2023-04-06 13:54:52,15.08840668,0.0001265,53.2156,154.062,95.7099,264.4038,0.00029091,4.345e-05,0.0,0 STARLINK-3645,1 51986U 22025AG  23096.57977420  .00004345  00000-0  29091-3 0  9991,2 51986  53.2156 154.0620 0001265  95.7099 264.4038 15.08840668 60902,6917.878,95.438,540.618,538.868,0.0
51986.0,STARLINK-3645,PAYLOAD,2023-04-06 20:16:25,15.08839304,0.0001248,53.2148,152.8728,91.5929,268.5206,0.00034764,5.249e-05,0.0,0 STARLINK-3645,1 51986U 22025AG  23096.84473638  .00005249  00000-0  34764-3 0  9990,2 51986  53.2148 152.8728 0001248  91.5929 268.5206 15.08839304 59854,6917.883,95.438,540.611,538.884,0.0
51986.0,STARLINK-3645,PAYLOAD,2023-04-07 12:10:16,15.08850961,0.0001297,53.2152,149.8992,99.2004,260.9135,0.00038671,5.874e-05,0.0,0 STARLINK-3645,1 51986U 22025AG  23097.50713242  .00005874  00000-0  38671-3 0  9997,2 51986  53.2152 149.8992 0001297  99.2004 260.9135 15.08850961 59951,6917.847,95.437,540.609,538.815,0.0
51986.0,STARLINK-3645,PAYLOAD,2023-04-07 20:07:11,15.08844933,0.0001249,53.2144,148.4126,92.4756,267.6379,0.00017163,2.445e-05,0.0,0 STARLINK-3645,1 51986U 22025AG  23097.83833333  .00002445  00000-0  17163-3 0  9991,2 51986  53.2144 148.4126 0001249  92.4756 267.6379 15.08844933 61096,6917.865,95.437,540.594,538.866,0.0
51986.0,STARLINK-3645,PAYLOAD,2023-04-08 08:50:16,15.08844791,0.0001241,53.2145,146.0337,93.5979,266.5155,8.4281e-05,1.054e-05,0.0,0 STARLINK-3645,1 51986U 22025AG  23098.36825161  .00001054  00000-0  84281-4 0  9991,2 51986  53.2145 146.0337 0001241  93.5979 266.5155 15.08844791 60086,6917.866,95.437,540.589,538.872,0.0
51986.0,STARLINK-3645,PAYLOAD,2023-04-09 02:19:31,15.08843819,0.0001587,53.2142,142.7628,83.0794,277.0378,4.4225e-05,4.16e-06,0.0,0 STARLINK-3645,1 51986U 22025AG  23099.09689074  .00000416  00000-0  44225-4 0  9998,2 51986  53.2142 142.7628 0001587  83.0794 277.0378 15.08843819 61288,6917.869,95.437,540.832,538.636,0.0
51986.0,STARLINK-3645,PAYLOAD,2023-04-09 10:16:27,15.08839983,0.0001434,53.2148,141.2754,84.4878,275.6278,-2.6381e-05,-7.08e-06,0.0,0 STARLINK-3645,1 51986U 22025AG  23099.42809280 -.00000708  00000-0 -26381-4 0  9997,2 51986  53.2148 141.2754 0001434  84.4878 275.6278 15.08839983 60242,6917.88,95.438,540.737,538.753,0.0
51986.0,STARLINK-3645,PAYLOAD,2023-04-09 15:02:36,15.0884348,0.0001488,53.2145,140.3821,83.7799,276.3363,2.6921e-05,1.41e-06,0.0,0 STARLINK-3645,1 51986U 22025AG  23099.62681082  .00000141  00000-0  26921-4 0  9996,2 51986  53.2145 140.3821 0001488  83.7799 276.3363 15.08843480 60270,6917.87,95.437,540.764,538.705,0.0
51986.0,STARLINK-3645,PAYLOAD,2023-04-10 02:10:18,15.08837955,0.0001232,53.2142,138.3,90.9322,269.1811,4.2652e-05,3.91e-06,0.0,0 STARLINK-3645,1 51986U 22025AG  23100.09049294  .00000391  00000-0  42652-4 0  9999,2 51986  53.2142 138.3000 0001232  90.9322 269.1811 15.08837955 61439,6917.887,95.438,540.604,538.899,0.0
51986.0,STARLINK-3645,PAYLOAD,2023-04-10 06:56:27,15.08839822,0.000132,53.2143,137.408,91.3506,268.7637,5.057e-05,5.17e-06,0.0,0 STARLINK-3645,1 51986U 22025AG  23100.28921257  .00000517  00000-0  50570-4 0  9996,2 51986  53.2143 137.4080 0001320  91.3506 268.7637 15.08839822 60373,6917.881,95.438,540.659,538.833,0.0
